JCSAT-3A                
1 29272U 06033A   15080.78613773 -.00000373  00000-0  10000-3 0  9998
2 29272   0.0152 291.3089 0001396  52.8255 245.8140  1.00268750 31591
SYRACUSE 3B             
1 29273U 06033B   15081.23685395 -.00000072  00000-0  10000-3 0  9995
2 29273   0.0160 114.6596 0004069 233.8418 270.9502  1.00271790 31581
KOREASAT 5 (MUGUNGWHA 5)
1 29349U 06034A   15080.89984897 -.00000386  00000-0  10000-3 0  9998
2 29349   0.0253 103.1219 0001508 166.0242 346.9178  1.00270895 31476
ZHONGXING-22A           
1 29398U 06038A   15080.89489352 -.00000340  00000-0  00000+0 0  9997
2 29398   4.3239  63.3172 0001600   8.4031 170.9948  1.00269709 31252
DIRECTV 9S              
1 29494U 06043A   15079.36293402 -.00000141  00000-0  00000+0 0  9998
2 29494   0.0048 196.4485 0003150 164.9108 205.7571  1.00272033 30926
OPTUS D1                
1 29495U 06043B   15079.59220856 -.00000138  00000-0  10000-3 0  9998
2 29495   0.0392  40.6690 0003069 317.8917 192.4241  1.00272314 30965
XM-4 (BLUES)            
1 29520U 06049A   15080.35394255 -.00000051  00000-0  00000+0 0  9993
2 29520   0.0250  51.2952 0000348 158.9736 340.4312  1.00270693 30823
BADR-4                  
1 29526U 06051A   15079.01162528  .00000117  00000-0  10000-3 0  9996
2 29526   0.0554 337.3866 0005642  15.5895 214.3877  1.00271666 30707
FENGYUN 2D              
1 29640U 06053A   15080.95056814 -.00000225  00000-0  10000-3 0  9991
2 29640   2.9131  68.6650 0000925 103.1584  76.0193  1.00267993 30396
WILDBLUE-1              
1 29643U 06054A   15081.23398846 -.00000077  00000-0  10000-3 0  9996
2 29643   0.0126 189.9083 0001439 167.7039 154.8422  1.00271468 30382
AMC-18                  
1 29644U 06054B   15080.23925718 -.00000117  00000-0  10000-3 0  9995
2 29644   0.0165 137.4356 0001921 223.2404 158.9187  1.00270883 30380
MEASAT-3                
1 29648U 06056A   15081.03294602 -.00000270  00000-0  00000+0 0  9996
2 29648   0.0456 137.7635 0001575 299.1636 205.6240  1.00271303 30405
KIKU-8 (ETS-VIII)       
1 29656U 06059A   15080.71355255 -.00000265  00000-0  00000+0 0  9998
2 29656   4.0618  64.5284 0005230 311.2910 205.6807  1.00269469 30272
INSAT-4B                
1 30793U 07007A   15080.62015940 -.00000285  00000-0  00000+0 0  9992
2 30793   0.0149 185.1895 0003879 137.6211 172.7084  1.00269228 29418
SKYNET 5A               
1 30794U 07007B   15080.83140962  .00000012  00000-0  00000+0 0  9996
2 30794   0.0704 357.8082 0003188   9.0749 117.3892  1.00272838 29517
ANIK F3                 
1 31102U 07009A   15081.11968432 -.00000029  00000-0  00000+0 0  9993
2 31102   0.0105 168.6268 0001936 197.6109  97.4302  1.00272944 29177
ASTRA 1L                
1 31306U 07016A   15080.21665412  .00000091  00000-0  00000+0 0  9997
2 31306   0.0775 304.8800 0004092  23.9583 306.7136  1.00271395 28871
GALAXY 17 (G-17)        
1 31307U 07016B   15079.19880578 -.00000201  00000-0  00000+0 0  9999
2 31307   0.0286 355.0759 0002921  23.9141 138.9576  1.00270781 28892
ZHONGXING-6B            
1 31800U 07031A   15080.62074637 -.00000390  00000-0  10000-3 0  9999
2 31800   0.0190 261.2696 0002287  91.8630 164.6335  1.00274518 28301
DIRECTV 10              
1 31862U 07032A   15080.56548431 -.00000131  00000-0  00000+0 0  9997
2 31862   0.0460 333.6483 0000129 218.9091  86.9320  1.00271598 28230
SPACEWAY 3              
1 32018U 07036A   15080.35294439 -.00000179  00000-0  10000-3 0  9995
2 32018   0.0174 357.9673 0006153 341.2176 231.4968  1.00270285 27958
BSAT-3A                 
1 32019U 07036B   15081.02703002 -.00000378  00000-0  10000-3 0  9993
2 32019   0.0390 224.2232 0001795  46.7733  27.7675  1.00269149 27890
INSAT-4CR               
1 32050U 07037A   15079.85063706 -.00000104  00000-0  00000+0 0  9999
2 32050   0.0284 230.9333 0004939  62.6709 264.6296  1.00270751 27674
OPTUS D2                
1 32252U 07044A   15080.65395749 -.00000212  00000-0  00000+0 0  9996
2 32252   0.0413 302.6861 0002664  68.8102 194.7663  1.00271208 27302
INTELSAT 11 (IS-11)     
1 32253U 07044B   15080.35494106 -.00000297  00000-0  10000-3 0  9999
2 32253   0.0233 229.5206 0002585 130.7716 263.0093  1.00272944 27355
STAR ONE C1             
1 32293U 07056A   15080.35364571 -.00000305  00000-0  00000+0 0  9993
2 32293   0.0654 268.8178 0002597 125.1866 206.8401  1.00270738 26960
SKYNET 5B               
1 32294U 07056B   15079.45929038  .00000000  00000-0  10000-3 0  9994
2 32294   0.0600   2.4112 0004013 352.1041  12.7877  1.00268206 27042
ASTRA 4A (SIRIUS 4)     
1 32299U 07057A   15080.02050718  .00000004  00000-0  00000+0 0  9994
2 32299   0.0022 190.8588 0002256 179.0535 180.4732  1.00270842 26787
HORIZONS-2              
1 32388U 07063B   15080.83668697 -.00000210  00000-0  10000-3 0  9995
2 32388   0.0262 268.5697 0002439 108.1451 188.3409  1.00271155 26718
THURAYA-3               
1 32404U 08001A   15079.88138086 -.00000330  00000-0  10000-3 0  9997
2 32404   4.4156 346.4865 0004100  11.7325 235.7600  1.00272024 26352
EXPRESS-AM33            
1 32478U 08003A   15081.02868740 -.00000309  00000-0  10000-3 0  9992
2 32478   0.0467 332.0040 0001337 131.6223 182.3841  1.00271287 26460
THOR 5                  
1 32487U 08006A   15080.83124191 -.00000038  00000-0  00000+0 0  9992
2 32487   0.0148 207.9030 0002147 161.9263 107.6366  1.00271152 26019
KIZUNA (WINDS)          
1 32500U 08007A   15077.85549579 -.00000284  00000-0  00000+0 0  9991
2 32500   0.0402 264.9092 0002623  87.9530 274.1768  1.00270088 25867
AMC-14                  
1 32708U 08011A   15079.63504851  .00000000  00000-0  10000-3 0  9998
2 32708  17.5589  75.9785 0051656 356.0337   3.9826  1.00273619 26957
DIRECTV 11              
1 32729U 08013A   15080.48570219 -.00000154  00000-0  00000+0 0  9995
2 32729   0.0341   6.1378 0000180 104.0681 144.1220  1.00271517 25765
ICO G1                  
1 32763U 08016A   15079.35519323 -.00000199  00000-0  00000+0 0  9998
2 32763   4.1850 346.3557 0003260   6.5845 219.6172  1.00273060 25333
VINASAT-1               
1 32767U 08018A   15080.82601657 -.00000357  00000-0  10000-3 0  9991
2 32767   0.0067 244.5341 0001136 148.2903 215.4704  1.00270774 25436
STAR ONE C2             
1 32768U 08018B   15080.35353135 -.00000293  00000-0  00000+0 0  9999
2 32768   0.0270 196.8436 0002565 229.2950 169.6288  1.00269380 25423
TIANLIAN 1-01           
1 32779U 08019A   15079.96813177 -.00000161  00000-0  10000-3 0  9993
2 32779   1.1441  79.8524 0034695 219.7295 307.0207  1.00268196 25298
AMOS-3                  
1 32794U 08022A   15080.21944586 -.00000062  00000-0  00000+0 0  9998
2 32794   0.0245 137.6789 0002466 256.9323 218.7922  1.00272490 25279
GALAXY 18 (G-18)        
1 32951U 08024A   15079.42835706 -.00000002  00000-0  00000+0 0  9993
2 32951   0.0103 143.6308 0002718 222.2949 202.8757  1.00271239 24933
CHINASAT 9 (ZX 9)       
1 33051U 08028A   15080.90994428 -.00000275  00000-0  00000+0 0  9993
2 33051   0.0021 232.7885 0004052 141.4471 224.6257  1.00270365 24856
SKYNET 5C               
1 33055U 08030A   15078.32907391 -.00000166  00000-0  00000+0 0  9995
2 33055   0.0746 342.3219 0002175  20.9756 273.8399  1.00270929 24741
TURKSAT 3A              
1 33056U 08030B   15080.01878966  .00000118  00000-0  00000+0 0  9996
2 33056   0.0428 151.8636 0002897 215.5330 219.5720  1.00273757 24901
INTELSAT 25 (IS-25)     
1 33153U 08034A   15080.13630118 -.00000252  00000-0  00000+0 0  9996
2 33153   0.0430 272.1094 0003739  83.7026 200.0601  1.00271071 24506
BADR-6                  
1 33154U 08034B   15079.61265603  .00000000  00000-0  10000-3 0  9996
2 33154   0.0737  45.2354 0005627 338.4529  40.6995  1.00272167 24591
ECHOSTAR 11             
1 33207U 08035A   15080.38367487 -.00000084  00000-0  10000-3 0  9998
2 33207   0.0188 284.2228 0002647  86.3566 196.0924  1.00271581 24489
SUPERBIRD-C2            
1 33274U 08038A   15079.55466132 -.00000279  00000-0  10000-3 0  9995
2 33274   0.0343 282.2028 0000916  89.5302 149.6317  1.00270111 24200
AMC-21                  
1 33275U 08038B   15079.43049035  .00000009  00000-0  10000-3 0  9992
2 33275   0.0350 307.7987 0001871  35.1720 224.7145  1.00272213 24285
INMARSAT 4-F3           
1 33278U 08039A   15080.23231273 -.00000167  00000-0  00000+0 0  9994
2 33278   3.0099 353.5628 0002696   1.9548 168.5292  1.00271596 24109
NIMIQ 4                 
1 33373U 08044A   15080.42300257 -.00000248  00000-0  00000+0 0  9996
2 33373   0.0214 220.5898 0001374 147.2918 240.9780  1.00270362 23724
GALAXY 19 (G-19)        
1 33376U 08045A   15079.57479049 -.00000167  00000-0  00000+0 0  9990
2 33376   0.0084 201.1219 0002743 173.2980 273.2602  1.00271838 23713
VENESAT-1               
1 33414U 08055A   15078.29210084 -.00000263  00000-0  00000+0 0  9991
2 33414   0.0262 329.9362 0001434  39.3977 194.2800  1.00269297 23400
ASTRA 1M                
1 33436U 08057A   15080.21665412  .00000091  00000-0  00000+0 0  9999
2 33436   0.0306 269.5390 0002224 183.5218 182.4939  1.00265090 23321
CIEL-2                  
1 33453U 08063A   15079.55700918  .00000031  00000-0  10000-3 0  9990
2 33453   0.0383 293.7674 0002549  75.9733 239.6608  1.00272072 22982
EUTELSAT HOT BIRD 13C   
1 33459U 08065A   15081.22261072  .00000058  00000-0  00000+0 0  9992
2 33459   0.0545 329.5933 0003234  55.3141 247.5971  1.00270491 23087
EUTELSAT 48D            
1 33460U 08065B   15081.09700865  .00000096  00000-0  00000+0 0  9999
2 33460   0.0547 346.7814 0001096  10.2636 265.2250  1.00269885 22949
FENGYUN 2E              
1 33463U 08066A   15080.89240274 -.00000358  00000-0  00000+0 0  9995
2 33463   2.4440  58.4507 0001385 118.5442  67.7860  1.00271832 22929
EXPRESS-AM44            
1 33595U 09007A   15080.35120049 -.00000117  00000-0  00000+0 0  9998
2 33595   0.0196 298.6148 0000827 149.9550 205.3943  1.00272278 22381
NSS-9                   
1 33749U 09008A   15079.61541417  .00000044  00000-0  10000-3 0  9996
2 33749   0.0400 324.1874 0001858  22.7606 235.3932  1.00272752 22384
